{
  "type": "FeatureCollection",
  "features": [
    {
      "type": "Feature",
      "properties": {
        "norad_id": 60182,
        "name": "ALOS-4 (DAICHI-4)",
        "group": "resource",
        "lat": 10.309640994738299,
        "lon": 87.89310163077079,
        "alt_km": 632.5555399330324,
        "timestamp": "2025-12-20T14:38:01.616454+00:00",
        "meta_object_name": "ALOS-4 (DAICHI-4)",
        "meta_object_id": "2024-123A",
        "meta_epoch": "2025-12-20T06:28:15.405600",
        "meta_mean_motion": 14.79475593,
        "meta_eccentricity": 0.0001387,
        "meta_inclination": 97.9224,
        "meta_ra_of_asc_node": 89.0094,
        "meta_arg_of_pericenter": 101.524,
        "meta_mean_anomaly": 258.6128,
        "meta_ephemeris_type": 0,
        "meta_classification_type": "U",
        "meta_norad_cat_id": 60182,
        "meta_element_set_no": 999,
        "meta_rev_at_epoch": 7942,
        "meta_bstar": 0.00020162618,
        "meta_mean_motion_dot": 1.455e-05,
        "meta_mean_motion_ddot": 0,
        "tle_line1": "1 60182U 24123A   25354.26962275  .00001455  00000+0  20163-3 0  9996",
        "tle_line2": "2 60182  97.9224  89.0094 0001387 101.5240 258.6128 14.79475593 79422"
      },
      "geometry": {
        "type": "Point",
        "coordinates": [
          87.89310163077079,
          10.309640994738299
        ]
      }
    },
    {
      "type": "Feature",
      "properties": {
        "norad_id": 60452,
        "name": "LEGION 3",
        "group": "resource",
        "lat": 38.3128333260237,
        "lon": -39.81798855707515,
        "alt_km": 523.3561131467031,
        "timestamp": "2025-12-20T14:38:01.616464+00:00",
        "meta_object_name": "LEGION 3",
        "meta_object_id": "2024-146A",
        "meta_epoch": "2025-12-20T01:42:39.461184",
        "meta_mean_motion": 15.15833125,
        "meta_eccentricity": 0.00156324,
        "meta_inclination": 45.0021,
        "meta_ra_of_asc_node": 270.828,
        "meta_arg_of_pericenter": 238.1588,
        "meta_mean_anomaly": 121.7769,
        "meta_ephemeris_type": 0,
        "meta_classification_type": "U",
        "meta_norad_cat_id": 60452,
        "meta_element_set_no": 999,
        "meta_rev_at_epoch": 7484,
        "meta_bstar": 0.00017540335,
        "meta_mean_motion_dot": 3.154e-05,
        "meta_mean_motion_ddot": 0,
        "tle_line1": "1 60452U 24146A   25354.07129006  .00003154  00000+0  17540-3 0  9990",
        "tle_line2": "2 60452  45.0021 270.8280 0015632 238.1588 121.7769 15.15833125 74840"
      },
      "geometry": {
        "type": "Point",
        "coordinates": [
          -39.81798855707515,
          38.3128333260237
        ]
      }
    },
    {
      "type": "Feature",
      "properties": {
        "norad_id": 60453,
        "name": "LEGION 4",
        "group": "resource",
        "lat": 37.71094853436254,
        "lon": 50.30819562968374,
        "alt_km": 510.07320542052366,
        "timestamp": "2025-12-20T14:38:01.616474+00:00",
        "meta_object_name": "LEGION 4",
        "meta_object_id": "2024-146B",
        "meta_epoch": "2025-12-20T03:18:01.161216",
        "meta_mean_motion": 15.1589566,
        "meta_eccentricity": 0.00087579,
        "meta_inclination": 45.0393,
        "meta_ra_of_asc_node": 2.2456,
        "meta_arg_of_pericenter": 350.7384,
        "meta_mean_anomaly": 9.3332,
        "meta_ephemeris_type": 0,
        "meta_classification_type": "U",
        "meta_norad_cat_id": 60453,
        "meta_element_set_no": 999,
        "meta_rev_at_epoch": 7370,
        "meta_bstar": 0.00018604449,
        "meta_mean_motion_dot": 3.362e-05,
        "meta_mean_motion_ddot": 0,
        "tle_line1": "1 60453U 24146B   25354.13751344  .00003362  00000+0  18604-3 0  9997",
        "tle_line2": "2 60453  45.0393   2.2456 0008757 350.7384   9.3332 15.15895660 73703"
      },
      "geometry": {
        "type": "Point",
        "coordinates": [
          50.30819562968374,
          37.71094853436254
        ]
      }
    },
    {
      "type": "Feature",
      "properties": {
        "norad_id": 60989,
        "name": "SENTINEL-2C",
        "group": "resource",
        "lat": -18.259662860595153,
        "lon": -115.8723551895425,
        "alt_km": 794.1736743694664,
        "timestamp": "2025-12-20T14:38:01.616485+00:00",
        "meta_object_name": "SENTINEL-2C",
        "meta_object_id": "2024-157A",
        "meta_epoch": "2025-12-20T03:38:23.300448",
        "meta_mean_motion": 14.30820273,
        "meta_eccentricity": 0.00012037,
        "meta_inclination": 98.5676,
        "meta_ra_of_asc_node": 66.5273,
        "meta_arg_of_pericenter": 95.83,
        "meta_mean_anomaly": 264.302,
        "meta_ephemeris_type": 0,
        "meta_classification_type": "U",
        "meta_norad_cat_id": 60989,
        "meta_element_set_no": 999,
        "meta_rev_at_epoch": 6738,
        "meta_bstar": 5.6238603e-05,
        "meta_mean_motion_dot": 1.04e-06,
        "meta_mean_motion_ddot": 0,
        "tle_line1": "1 60989U 24157A   25354.15165857  .00000104  00000+0  56239-4 0  9991",
        "tle_line2": "2 60989  98.5676  66.5273 0001203  95.8300 264.3020 14.30820273 67386"
      },
      "geometry": {
        "type": "Point",
        "coordinates": [
          -115.8723551895425,
          -18.259662860595153
        ]
      }
    },
    {
      "type": "Feature",
      "properties": {
        "norad_id": 61735,
        "name": "IONOSFERA-M 1",
        "group": "resource",
        "lat": -54.63342772379868,
        "lon": 31.88012558552746,
        "alt_km": 823.4817201328606,
        "timestamp": "2025-12-20T14:38:01.616495+00:00",
        "meta_object_name": "IONOSFERA-M 1",
        "meta_object_id": "2024-199A",
        "meta_epoch": "2025-12-20T06:46:42.954240",
        "meta_mean_motion": 14.22715558,
        "meta_eccentricity": 5.988e-05,
        "meta_inclination": 98.7399,
        "meta_ra_of_asc_node": 224.0726,
        "meta_arg_of_pericenter": 12.5792,
        "meta_mean_anomaly": 347.54,
        "meta_ephemeris_type": 0,
        "meta_classification_type": "U",
        "meta_norad_cat_id": 61735,
        "meta_element_set_no": 999,
        "meta_rev_at_epoch": 10226,
        "meta_bstar": 3.8020775e-05,
        "meta_mean_motion_dot": 4.1e-07,
        "meta_mean_motion_ddot": 0,
        "tle_line1": "1 61735U 24199A   25354.28244160  .00000041  00000+0  38021-4 0  9995",
        "tle_line2": "2 61735  98.7399 224.0726 0000598  12.5792 347.5400 14.22715558102264"
      },
      "geometry": {
        "type": "Point",
        "coordinates": [
          31.88012558552746,
          -54.63342772379868
        ]
      }
    },
    {
      "type": "Feature",
      "properties": {
        "norad_id": 61736,
        "name": "IONOSFERA-M 2",
        "group": "resource",
        "lat": 57.124070433235374,
        "lon": -149.45905354419082,
        "alt_km": 809.6851801185012,
        "timestamp": "2025-12-20T14:38:01.616505+00:00",
        "meta_object_name": "IONOSFERA-M 2",
        "meta_object_id": "2024-199B",
        "meta_epoch": "2025-12-20T05:55:19.157664",
        "meta_mean_motion": 14.22717745,
        "meta_eccentricity": 0.00018042,
        "meta_inclination": 98.7397,
        "meta_ra_of_asc_node": 223.9496,
        "meta_arg_of_pericenter": 100.9707,
        "meta_mean_anomaly": 259.1674,
        "meta_ephemeris_type": 0,
        "meta_classification_type": "U",
        "meta_norad_cat_id": 61736,
        "meta_element_set_no": 999,
        "meta_rev_at_epoch": 10538,
        "meta_bstar": 3.8608795e-05,
        "meta_mean_motion_dot": 4.2e-07,
        "meta_mean_motion_ddot": 0,
        "tle_line1": "1 61736U 24199B   25354.24674951  .00000042  00000+0  38609-4 0  9990",
        "tle_line2": "2 61736  98.7397 223.9496 0001804 100.9707 259.1674 14.22717745105381"
      },
      "geometry": {
        "type": "Point",
        "coordinates": [
          -149.45905354419082,
          57.124070433235374
        ]
      }
    },
    {
      "type": "Feature",
      "properties": {
        "norad_id": 63772,
        "name": "BIOMASS",
        "group": "resource",
        "lat": 75.69236916098932,
        "lon": 145.703456479137,
        "alt_km": 660.9991237859913,
        "timestamp": "2025-12-20T14:38:01.616515+00:00",
        "meta_object_name": "BIOMASS",
        "meta_object_id": "2025-090A",
        "meta_epoch": "2025-12-20T01:11:17.012544",
        "meta_mean_motion": 14.67536115,
        "meta_eccentricity": 0.00010834,
        "meta_inclination": 98.07,
        "meta_ra_of_asc_node": 178.9528,
        "meta_arg_of_pericenter": 80.9367,
        "meta_mean_anomaly": 279.196,
        "meta_ephemeris_type": 0,
        "meta_classification_type": "U",
        "meta_norad_cat_id": 63772,
        "meta_element_set_no": 999,
        "meta_rev_at_epoch": 3441,
        "meta_bstar": 0.00013710423,
        "meta_mean_motion_dot": 7.3e-06,
        "meta_mean_motion_ddot": 0,
        "tle_line1": "1 63772U 25090A   25354.04950246  .00000730  00000+0  13710-3 0  9994",
        "tle_line2": "2 63772  98.0700 178.9528 0001083  80.9367 279.1960 14.67536115 34411"
      },
      "geometry": {
        "type": "Point",
        "coordinates": [
          145.703456479137,
          75.69236916098932
        ]
      }
    }
  ]
}